UMBRA-07                
1 58297U 23174AT  26186.13874195  .00018315  00000+0  11446-2 0  9994
2 58297  97.3781 241.2238 0003461  48.3702 311.7824 15.09493920146120
UMBRA-09                
1 60541U 24149CB  26186.19126876  .00031062  00000+0  14980-2 0  9994
2 60541  97.6964 273.7112 0001625 225.9608 134.1492 15.18640889103455
UMBRA-10                
1 60547U 24149CH  26186.19082251  .00029904  00000+0  14429-2 0  9998
2 60547  97.6973 273.7400 0000871 183.0614 177.0615 15.18634050103461
UMBRA-11                
1 66748U 25276CL  26186.14560684  .00036933  00000+0  13710-2 0  9997
2 66748  97.4187 260.6730 0001707 221.7575 138.3534 15.27479921 33232
UMBRA-12                
1 67371U 26004J   26185.70915241  .00008381  00000+0  88521-3 0  9993
2 67371  97.8019 184.2372 0007827  79.7163 280.4937 14.89474586 25910
